*******************************************************************************
Ephemeris / WWW_USER Mon Jul 15 19:34:33 2024 Pasadena, USA      / Horizons    
*******************************************************************************
Target body name: (2015 BP519)                    {source: JPL#11}
Center body name: Earth (399)                     {source: DE441}
Center-site name: Gemini South Obs., Cerro Pachon
*******************************************************************************
Start time      : A.D. 2018-Nov-21 23:31:00.0000 UT      
Stop  time      : A.D. 2018-Nov-22 09:26:00.0000 UT      
Step-size       : 1 minutes
*******************************************************************************
Target pole/equ : undefined
Target radii    : undefined                                                    
Center geodetic : 289.2634, -30.2406227, 2.71233  {E-lon(deg),Lat(deg),Alt(km)}
Center cylindric: 289.2634,5517.21435,-3194.81213 {E-lon(deg),Dxy(km),Dz(km)}
Center pole/equ : ITRF93                          {East-longitude positive}
Center radii    : 6378.137, 6378.137, 6356.752 km {Equator_a, b, pole_c}       
Target primary  : Sun
Vis. interferer : MOON (R_eq= 1737.400) km        {source: DE441}
Rel. light bend : Sun                             {source: DE441}
Rel. lght bnd GM: 1.3271E+11 km^3/s^2                                          
Small-body perts: Yes                             {source: SB441-N16}
Atmos refraction: NO (AIRLESS)
RA format       : HMS
Time format     : CAL 
Calendar mode   : Mixed Julian/Gregorian
RTS-only print  : NO       
EOP file        : eop.240715.p241008                                           
EOP coverage    : DATA-BASED 1962-JAN-20 TO 2024-JUL-15. PREDICTS-> 2024-OCT-07
Units conversion: 1 au= 149597870.700 km, c= 299792.458 km/s, 1 day= 86400.0 s 
Table cut-offs 1: Elevation (-90.0deg=NO ),Airmass (>38.000=NO), Daylight (YES)
Table cut-offs 2: Solar elongation (  0.0,180.0=NO ),Local Hour Angle( 0.0=NO )
Table cut-offs 3: RA/DEC angular rate (     0.0=NO )                           
*******************************************************************************
Initial IAU76/J2000 heliocentric ecliptic osculating elements (au, days, deg.):
  EPOCH=  2459185.5 ! 2020-Dec-02.00 (TDB)         Residual RMS= .076636       
   EC= .9196800569382362   QR= 35.27062259520413   TP= 2473034.2681888649      
   OM= 135.0361763364557   W=  348.1354702472351   IN= 54.13300168900849       
  Equivalent ICRF heliocentric cartesian coordinates (au, au/d):
   X= 1.527332710437156E+01  Y= 4.057000090505051E+01  Z=-2.695001507835700E+01
  VX=-2.654302427537234E-03 VY= 4.512065776218028E-05 VZ= 1.968031006040699E-03
Asteroid physical parameters (km, seconds, rotational period in hours):        
   GM= n.a.                RAD= n.a.               ROTPER= n.a.                
   H= 4.34                 G= .150                 B-V= n.a.                   
                           ALBEDO= n.a.            STYP= n.a.                  
*******************************************************************************
 Date__(UT)__HR:MN     R.A._________(ICRF)_________DEC
******************************************************
$$SOE
 2018-Nov-22 01:34  m  04 28 40.585960 -33 40 44.22341
 2018-Nov-22 01:35  m  04 28 40.582710 -33 40 44.23092
 2018-Nov-22 01:36  m  04 28 40.579460 -33 40 44.23842
 2018-Nov-22 01:37  m  04 28 40.576210 -33 40 44.24592
 2018-Nov-22 01:38  m  04 28 40.572959 -33 40 44.25342
 2018-Nov-22 01:39  m  04 28 40.569708 -33 40 44.26092
 2018-Nov-22 01:40  m  04 28 40.566457 -33 40 44.26842
 2018-Nov-22 01:41  m  04 28 40.563206 -33 40 44.27592
 2018-Nov-22 01:42  m  04 28 40.559955 -33 40 44.28341
 2018-Nov-22 01:43  m  04 28 40.556703 -33 40 44.29091
 2018-Nov-22 01:44  m  04 28 40.553451 -33 40 44.29840
 2018-Nov-22 01:45  m  04 28 40.550200 -33 40 44.30589
 2018-Nov-22 01:46  m  04 28 40.546947 -33 40 44.31338
 2018-Nov-22 01:47  m  04 28 40.543695 -33 40 44.32087
 2018-Nov-22 01:48  m  04 28 40.540443 -33 40 44.32835
 2018-Nov-22 01:49  m  04 28 40.537190 -33 40 44.33584
 2018-Nov-22 01:50  m  04 28 40.533937 -33 40 44.34332
 2018-Nov-22 01:51  m  04 28 40.530684 -33 40 44.35080
 2018-Nov-22 01:52  m  04 28 40.527431 -33 40 44.35828
 2018-Nov-22 01:53  m  04 28 40.524178 -33 40 44.36576
 2018-Nov-22 01:54  m  04 28 40.520924 -33 40 44.37324
 2018-Nov-22 01:55  m  04 28 40.517671 -33 40 44.38071
 2018-Nov-22 01:56  m  04 28 40.514417 -33 40 44.38819
 2018-Nov-22 01:57  m  04 28 40.511163 -33 40 44.39566
 2018-Nov-22 01:58  m  04 28 40.507908 -33 40 44.40313
 2018-Nov-22 01:59  m  04 28 40.504654 -33 40 44.41060
 2018-Nov-22 02:00  m  04 28 40.501399 -33 40 44.41807
 2018-Nov-22 02:01  m  04 28 40.498145 -33 40 44.42554
 2018-Nov-22 02:02  m  04 28 40.494890 -33 40 44.43300
 2018-Nov-22 02:03  m  04 28 40.491635 -33 40 44.44047
 2018-Nov-22 02:04  m  04 28 40.488379 -33 40 44.44793
 2018-Nov-22 02:05  m  04 28 40.485124 -33 40 44.45539
 2018-Nov-22 02:06  m  04 28 40.481868 -33 40 44.46285
 2018-Nov-22 02:07  m  04 28 40.478613 -33 40 44.47031
 2018-Nov-22 02:08  m  04 28 40.475357 -33 40 44.47776
 2018-Nov-22 02:09  m  04 28 40.472101 -33 40 44.48522
 2018-Nov-22 02:10  m  04 28 40.468844 -33 40 44.49267
 2018-Nov-22 02:11  m  04 28 40.465588 -33 40 44.50012
 2018-Nov-22 02:12  m  04 28 40.462331 -33 40 44.50757
 2018-Nov-22 02:13  m  04 28 40.459074 -33 40 44.51502
 2018-Nov-22 02:14  m  04 28 40.455818 -33 40 44.52246
 2018-Nov-22 02:15  m  04 28 40.452560 -33 40 44.52991
 2018-Nov-22 02:16  m  04 28 40.449303 -33 40 44.53735
 2018-Nov-22 02:17  m  04 28 40.446046 -33 40 44.54479
 2018-Nov-22 02:18  m  04 28 40.442788 -33 40 44.55223
 2018-Nov-22 02:19  m  04 28 40.439530 -33 40 44.55967
 2018-Nov-22 02:20  m  04 28 40.436273 -33 40 44.56711
 2018-Nov-22 02:21  m  04 28 40.433015 -33 40 44.57455
 2018-Nov-22 02:22  m  04 28 40.429756 -33 40 44.58198
 2018-Nov-22 02:23  m  04 28 40.426498 -33 40 44.58941
 2018-Nov-22 02:24  m  04 28 40.423239 -33 40 44.59684
 2018-Nov-22 02:25  m  04 28 40.419981 -33 40 44.60427
 2018-Nov-22 02:26  m  04 28 40.416722 -33 40 44.61170
 2018-Nov-22 02:27  m  04 28 40.413463 -33 40 44.61912
 2018-Nov-22 02:28  m  04 28 40.410204 -33 40 44.62655
 2018-Nov-22 02:29  m  04 28 40.406944 -33 40 44.63397
 2018-Nov-22 02:30  m  04 28 40.403685 -33 40 44.64139
 2018-Nov-22 02:31  m  04 28 40.400425 -33 40 44.64881
 2018-Nov-22 02:32  m  04 28 40.397166 -33 40 44.65623
 2018-Nov-22 02:33  m  04 28 40.393906 -33 40 44.66364
 2018-Nov-22 02:34  m  04 28 40.390646 -33 40 44.67105
 2018-Nov-22 02:35  m  04 28 40.387385 -33 40 44.67847
 2018-Nov-22 02:36  m  04 28 40.384125 -33 40 44.68588
 2018-Nov-22 02:37  m  04 28 40.380865 -33 40 44.69329
 2018-Nov-22 02:38  m  04 28 40.377604 -33 40 44.70069
 2018-Nov-22 02:39  m  04 28 40.374343 -33 40 44.70810
 2018-Nov-22 02:40  m  04 28 40.371082 -33 40 44.71550
 2018-Nov-22 02:41  m  04 28 40.367821 -33 40 44.72290
 2018-Nov-22 02:42  m  04 28 40.364560 -33 40 44.73030
 2018-Nov-22 02:43  m  04 28 40.361299 -33 40 44.73770
 2018-Nov-22 02:44  m  04 28 40.358037 -33 40 44.74510
 2018-Nov-22 02:45  m  04 28 40.354775 -33 40 44.75249
 2018-Nov-22 02:46  m  04 28 40.351514 -33 40 44.75989
 2018-Nov-22 02:47  m  04 28 40.348252 -33 40 44.76728
 2018-Nov-22 02:48  m  04 28 40.344990 -33 40 44.77467
 2018-Nov-22 02:49  m  04 28 40.341727 -33 40 44.78206
 2018-Nov-22 02:50  m  04 28 40.338465 -33 40 44.78944
 2018-Nov-22 02:51  m  04 28 40.335203 -33 40 44.79683
 2018-Nov-22 02:52  m  04 28 40.331940 -33 40 44.80421
 2018-Nov-22 02:53  m  04 28 40.328677 -33 40 44.81159
 2018-Nov-22 02:54  m  04 28 40.325414 -33 40 44.81897
 2018-Nov-22 02:55  m  04 28 40.322151 -33 40 44.82635
 2018-Nov-22 02:56  m  04 28 40.318888 -33 40 44.83373
 2018-Nov-22 02:57  m  04 28 40.315625 -33 40 44.84110
 2018-Nov-22 02:58  m  04 28 40.312362 -33 40 44.84847
 2018-Nov-22 02:59  m  04 28 40.309098 -33 40 44.85584
 2018-Nov-22 03:00  m  04 28 40.305835 -33 40 44.86321
 2018-Nov-22 03:01  m  04 28 40.302571 -33 40 44.87058
 2018-Nov-22 03:02  m  04 28 40.299307 -33 40 44.87794
 2018-Nov-22 03:03  m  04 28 40.296043 -33 40 44.88531
 2018-Nov-22 03:04  m  04 28 40.292779 -33 40 44.89267
 2018-Nov-22 03:05  m  04 28 40.289514 -33 40 44.90003
 2018-Nov-22 03:06  m  04 28 40.286250 -33 40 44.90739
 2018-Nov-22 03:07  m  04 28 40.282985 -33 40 44.91474
 2018-Nov-22 03:08  m  04 28 40.279721 -33 40 44.92210
 2018-Nov-22 03:09  m  04 28 40.276456 -33 40 44.92945
 2018-Nov-22 03:10  m  04 28 40.273191 -33 40 44.93680
 2018-Nov-22 03:11  m  04 28 40.269926 -33 40 44.94415
 2018-Nov-22 03:12  m  04 28 40.266661 -33 40 44.95150
 2018-Nov-22 03:13  m  04 28 40.263396 -33 40 44.95884
 2018-Nov-22 03:14  m  04 28 40.260130 -33 40 44.96618
 2018-Nov-22 03:15  m  04 28 40.256865 -33 40 44.97353
 2018-Nov-22 03:16  m  04 28 40.253599 -33 40 44.98087
 2018-Nov-22 03:17  m  04 28 40.250334 -33 40 44.98820
 2018-Nov-22 03:18  m  04 28 40.247068 -33 40 44.99554
 2018-Nov-22 03:19  m  04 28 40.243802 -33 40 45.00287
 2018-Nov-22 03:20  m  04 28 40.240536 -33 40 45.01021
 2018-Nov-22 03:21  m  04 28 40.237270 -33 40 45.01754
 2018-Nov-22 03:22  m  04 28 40.234004 -33 40 45.02487
 2018-Nov-22 03:23  m  04 28 40.230737 -33 40 45.03219
 2018-Nov-22 03:24  m  04 28 40.227471 -33 40 45.03952
 2018-Nov-22 03:25  m  04 28 40.224204 -33 40 45.04684
 2018-Nov-22 03:26  m  04 28 40.220937 -33 40 45.05416
 2018-Nov-22 03:27  m  04 28 40.217671 -33 40 45.06148
 2018-Nov-22 03:28  m  04 28 40.214404 -33 40 45.06880
 2018-Nov-22 03:29  m  04 28 40.211137 -33 40 45.07611
 2018-Nov-22 03:30  m  04 28 40.207870 -33 40 45.08343
 2018-Nov-22 03:31  m  04 28 40.204602 -33 40 45.09074
 2018-Nov-22 03:32  m  04 28 40.201335 -33 40 45.09805
 2018-Nov-22 03:33  m  04 28 40.198068 -33 40 45.10536
 2018-Nov-22 03:34  m  04 28 40.194800 -33 40 45.11266
 2018-Nov-22 03:35  m  04 28 40.191533 -33 40 45.11997
 2018-Nov-22 03:36  m  04 28 40.188265 -33 40 45.12727
